OBJECT_NAME,OBJECT_ID,EPOCH,MEAN_MOTION,ECCENTRICITY,INCLINATION,RA_OF_ASC_NODE,ARG_OF_PERICENTER,MEAN_ANOMALY,EPHEMERIS_TYPE,CLASSIFICATION_TYPE,NORAD_CAT_ID,ELEMENT_SET_NO,REV_AT_EPOCH,BSTAR,MEAN_MOTION_DOT,MEAN_MOTION_DDOT
STARLINK-37695,2026-154F,2026-07-13T14:00:01.000224,15.92555759,.0001244,53.1597,301.0763,56.5910,104.2578,0,U,69824,999,241,-.5649372E-2,-.1961759E-1,.10553048E-2
STARLINK-37690,2026-154G,2026-07-13T14:00:01.000224,15.90736111,.00010816,53.1598,301.0746,61.4091,100.3410,0,U,69825,999,241,-.61363929E-2,-.193997E-1,.10150208E-2
STARLINK-37710,2026-154H,2026-07-13T14:00:01.000224,15.90852269,.00010952,53.1596,301.0677,65.2749,99.7515,0,U,69826,999,241,-.61124558E-2,-.1943869E-1,.10199791E-2
STARLINK-38031,2026-154J,2026-07-13T14:00:01.000224,15.90972398,.00011804,53.1597,301.0611,60.6374,107.4481,0,U,69827,999,241,-.60583329E-2,-.1938636E-1,.10160823E-2
STARLINK-38001,2026-154K,2026-07-13T14:00:01.000224,15.91095417,.00011044,53.1596,301.0550,65.6692,105.4304,0,U,69828,999,241,-.59969244E-2,-.1931217E-1,.10100908E-2
STARLINK-37622,2026-154L,2026-07-13T14:00:01.000224,15.91217899,.00010933,53.1596,301.0488,65.5656,108.5716,0,U,69829,999,241,-.59538536E-2,-.1929468E-1,.10096116E-2
STARLINK-37621,2026-154M,2026-07-13T14:00:01.000224,15.91349360,.00011736,53.1596,301.0428,65.9144,111.0524,0,U,69830,999,241,-.58905759E-2,-.192203E-1,.10036957E-2
STARLINK-37918,2026-154N,2026-07-13T14:00:01.000224,15.91491348,.00011011,53.1596,301.0371,66.7189,113.0257,0,U,69831,999,241,-.58652952E-2,-.192774E-1,.10106636E-2
STARLINK-37887,2026-154P,2026-07-13T14:00:01.000224,15.91629943,.00011329,53.1595,301.0313,64.5565,117.9366,0,U,69832,999,241,-.58219649E-2,-.1927246E-1,.10115731E-2
STARLINK-37624,2026-154Q,2026-07-13T14:00:01.000224,15.91730003,.00010367,53.1594,301.0246,65.6175,120.1767,0,U,69833,999,241,-.5783108E-2,-.1924328E-1,.10097314E-2
STARLINK-37769,2026-154R,2026-07-13T14:00:01.000224,15.91841936,.00010827,53.1594,301.0180,67.8335,121.1083,0,U,69834,999,241,-.57534924E-2,-.1925584E-1,.10120842E-2
STARLINK-37247,2026-154S,2026-07-13T14:00:01.000224,15.91961508,.00011063,53.1594,301.0117,66.3676,125.6274,0,U,69835,999,251,-.57315978E-2,-.1930119E-1,.10177348E-2
STARLINK-37569,2026-154T,2026-07-13T14:00:01.000224,15.92090003,.00010696,53.1593,301.0063,68.1685,126.5379,0,U,69836,999,241,-.56529052E-2,-.1916526E-1,.100574E-2
STARLINK-37587,2026-154U,2026-07-13T14:00:01.000224,15.92185890,.00011991,53.1594,300.9990,68.2282,129.9176,0,U,69837,999,238,-.56467877E-2,-.1923939E-1,.10139563E-2
STARLINK-37590,2026-154V,2026-07-13T14:00:01.000224,15.92305265,.0001188,53.1592,300.9930,68.4663,132.6003,0,U,69838,999,225,-.56064124E-2,-.1922102E-1,.1013369E-2
STARLINK-37589,2026-154W,2026-07-13T14:00:01.000224,15.92417230,.00010338,53.1590,300.9866,70.6304,133.5556,0,U,69839,999,238,-.55873999E-2,-.1926693E-1,.10190214E-2
STARLINK-37487,2026-154X,2026-07-13T14:00:01.000224,15.99126893,.00007327,53.1582,300.7612,61.0775,250.9398,0,U,69840,999,238,-.31450608E-2,-.1565201E-1,.7441437E-3
STARLINK-37433,2026-154Y,2026-07-13T14:00:01.000224,15.99232652,.00007852,53.1583,300.7491,71.4814,246.3077,0,U,69841,999,251,-.31719343E-2,-.1587745E-1,.76485742E-3
STARLINK-37588,2026-154Z,2026-07-13T14:00:01.000224,15.99346155,.00007619,53.1581,300.7361,68.8870,255.0964,0,U,69842,999,241,-.32038392E-2,-.16137E-1,.78901703E-3
STARLINK-37579,2026-154AA,2026-07-13T14:00:01.000224,15.99481892,.00007863,53.1581,300.7184,68.3433,263.9954,0,U,69843,999,241,-.32528299E-2,-.1650535E-1,.82378261E-3
STARLINK-37584,2026-154AB,2026-07-13T14:00:01.000224,15.99586553,.00007862,53.1583,300.7078,69.5974,267.7468,0,U,69844,999,241,-.32646195E-2,-.1666183E-1,.83923061E-3
STARLINK-37606,2026-154AC,2026-07-13T14:00:01.000224,15.99707597,.00008255,53.1580,300.6950,66.8546,276.5638,0,U,69845,999,241,-.32862096E-2,-.1688494E-1,.8612783E-3
STARLINK-37603,2026-154AD,2026-07-13T14:00:01.000224,15.99847183,.00008269,53.1582,300.6794,63.1059,287.6653,0,U,69846,999,241,-.332173E-2,-.1719944E-1,.89260708E-3
STARLINK-37595,2026-154AE,2026-07-13T14:00:01.000224,15.99950907,.00006578,53.1579,300.6684,66.9465,288.8810,0,U,69847,999,241,-.33304745E-2,-.173449E-1,.90770625E-3
CHUANG XIN 26 (CX-26),2026-158A,2026-07-13T12:20:46.071168,14.25122238,.0004887,49.9860,287.5119,294.2352,65.8050,0,U,69972,999,46,-.21871415E-4,-.212E-5,0
CZ-10B DEB,2026-158B,2026-07-13T14:02:35.409120,14.24885997,.00057008,49.9846,287.2193,305.8104,54.2279,0,U,69973,999,47,.1101274E-3,.99E-6,0
CZ-10B R/B,2026-158C,2026-07-13T13:30:02.623104,14.64293949,.0197945,49.9631,286.3519,194.8878,164.6170,0,U,69974,999,48,.5513E-4,.143E-5,0
